[{"OBJECT_NAME":"STARLINK-5324","OBJECT_ID":"2023-021BB","EPOCH":"2026-03-09T12:32:12.843168","MEAN_MOTION":14.9832728,"ECCENTRICITY":0.00033628,"INCLINATION":70.0007,"RA_OF_ASC_NODE":144.8377,"ARG_OF_PERICENTER":269.4702,"MEAN_ANOMALY":90.6072,"EPHEMERIS_TYPE":0,"CLASSIFICATION_TYPE":"U","NORAD_CAT_ID":55677,"ELEMENT_SET_NO":999,"REV_AT_EPOCH":16975,"BSTAR":-4.7771848e-5,"MEAN_MOTION_DOT":-6.63e-6,"MEAN_MOTION_DDOT":0},{"OBJECT_NAME":"AISSAT 1","OBJECT_ID":"2010-035C","EPOCH":"2026-03-09T18:13:55.092288","MEAN_MOTION":14.96891223,"ECCENTRICITY":0.00096674,"INCLINATION":98.1015,"RA_OF_ASC_NODE":324.4785,"ARG_OF_PERICENTER":31.9143,"MEAN_ANOMALY":328.2662,"EPHEMERIS_TYPE":0,"CLASSIFICATION_TYPE":"U","NORAD_CAT_ID":36797,"ELEMENT_SET_NO":999,"REV_AT_EPOCH":84934,"BSTAR":0.00027660201,"MEAN_MOTION_DOT":3.114e-5,"MEAN_MOTION_DDOT":0}]
